[{"OBJECT_NAME":"STARLINK-5552","OBJECT_ID":"2023-058Y","EPOCH":"2026-03-09T23:24:12.766464","MEAN_MOTION":15.01259475,"ECCENTRICITY":0.00018274,"INCLINATION":97.6029,"RA_OF_ASC_NODE":70.4842,"ARG_OF_PERICENTER":178.5517,"MEAN_ANOMALY":181.5713,"EPHEMERIS_TYPE":0,"CLASSIFICATION_TYPE":"U","NORAD_CAT_ID":56339,"ELEMENT_SET_NO":999,"REV_AT_EPOCH":15817,"BSTAR":-4.566163e-6,"MEAN_MOTION_DOT":-1.17e-6,"MEAN_MOTION_DDOT":0},{"OBJECT_NAME":"COSMOS 374 DEB","OBJECT_ID":"1970-089D","EPOCH":"2026-03-09T23:15:59.694624","MEAN_MOTION":14.41356541,"ECCENTRICITY":0.03141885,"INCLINATION":62.9412,"RA_OF_ASC_NODE":312.2031,"ARG_OF_PERICENTER":321.7041,"MEAN_ANOMALY":36.2082,"EPHEMERIS_TYPE":0,"CLASSIFICATION_TYPE":"U","NORAD_CAT_ID":4617,"ELEMENT_SET_NO":999,"REV_AT_EPOCH":75367,"BSTAR":0.00087541889,"MEAN_MOTION_DOT":4.985e-5,"MEAN_MOTION_DDOT":0}]
